IXPE                    
1 49954U 21121A   24092.58334491  .00008896  00000+0  68070-3 0  9996
2 49954   0.2287 241.8200 0009205 221.5467  19.6730 14.97108327  5443
